{"type": "FeatureCollection", "features": [ {"type": "Feature", "properties": {"norad_id": 66747, "name": "W-SERIES 5", "group": "last-30-days", "lat": -23.255869345199457, "lon": 75.5215445545476, "alt_km": 519.7163739532398, "timestamp": "2025-12-26T18:39:30.997020+00:00", "meta": {"OBJECT_NAME": "W-SERIES 5", "OBJECT_ID": "2025-276CK", "EPOCH": "2025-12-26T14:00:51.740352", "MEAN_MOTION": 15.17572129, "ECCENTRICITY": 0.00016348, "INCLINATION": 97.4405, "RA_OF_ASC_NODE": 72.1118, "ARG_OF_PERICENTER": 185.023, "MEAN_ANOMALY": 175.0988, "EPHEMERIS_TYPE": 0, "CLASSIFICATION_TYPE": "U", "NORAD_CAT_ID": 66747, "ELEMENT_SET_NO": 999, "REV_AT_EPOCH": 422, "BSTAR": 0.00021265873, "MEAN_MOTION_DOT": 4.204e-05, "MEAN_MOTION_DDOT": 0}, "tle": {"line1": "1 66747U 25276CK  25360.58393218  .00004204  00000+0  21266-3 0  9996", "line2": "2 66747  97.4405  72.1118 0001634 185.0230 175.0988 15.17572129  4220"}}, "geometry": {"type": "Point", "coordinates": [75.5215445545476, -23.255869345199457]}}, {"type": "Feature", "properties": {"norad_id": 66748, "name": "TRANSPORTER-15CL", "group": "last-30-days", "lat": 38.0100086112457, "lon": 66.46372713949208, "alt_km": 508.63493686581114, "timestamp": "2025-12-26T18:39:30.997031+00:00", "meta": {"OBJECT_NAME": "TRANSPORTER-15CL", "OBJECT_ID": "2025-276CL", "EPOCH": "2025-12-26T13:44:45.587904", "MEAN_MOTION": 15.18656442, "ECCENTRICITY": 0.00022132, "INCLINATION": 97.4398, "RA_OF_ASC_NODE": 72.1242, "ARG_OF_PERICENTER": 206.7344, "MEAN_ANOMALY": 153.3776, "EPHEMERIS_TYPE": 0, "CLASSIFICATION_TYPE": "U", "NORAD_CAT_ID": 66748, "ELEMENT_SET_NO": 999, "REV_AT_EPOCH": 422, "BSTAR": 0.0010287358, "MEAN_MOTION_DOT": 0.00021293, "MEAN_MOTION_DDOT": 0}, "tle": {"line1": "1 66748U 25276CL  25360.57274986  .00021293  00000+0  10287-2 0  9993", "line2": "2 66748  97.4398  72.1242 0002213 206.7344 153.3776 15.18656442  4227"}}, "geometry": {"type": "Point", "coordinates": [66.46372713949208, 38.0100086112457]}}, {"type": "Feature", "properties": {"norad_id": 66749, "name": "TRANSPORTER-15CM", "group": "last-30-days", "lat": 4.105854750715182, "lon": 71.77079846293022, "alt_km": 516.1417109515005, "timestamp": "2025-12-26T18:39:30.997041+00:00", "meta": {"OBJECT_NAME": "TRANSPORTER-15CM", "OBJECT_ID": "2025-276CM", "EPOCH": "2025-12-26T13:53:38.655168", "MEAN_MOTION": 15.17924739, "ECCENTRICITY": 0.00022084, "INCLINATION": 97.4393, "RA_OF_ASC_NODE": 72.1131, "ARG_OF_PERICENTER": 175.8088, "MEAN_ANOMALY": 184.3165, "EPHEMERIS_TYPE": 0, "CLASSIFICATION_TYPE": "U", "NORAD_CAT_ID": 66749, "ELEMENT_SET_NO": 999, "REV_AT_EPOCH": 422, "BSTAR": 0.00037610786, "MEAN_MOTION_DOT": 7.566e-05, "MEAN_MOTION_DDOT": 0}, "tle": {"line1": "1 66749U 25276CM  25360.57891962  .00007566  00000+0  37611-3 0  9991", "line2": "2 66749  97.4393  72.1131 0002208 175.8088 184.3165 15.17924739  4227"}}, "geometry": {"type": "Point", "coordinates": [71.77079846293022, 4.105854750715182]}}, {"type": "Feature", "properties": {"norad_id": 66750, "name": "TRANSPORTER-15CN", "group": "last-30-days", "lat": 22.79707993240635, "lon": 69.17911002718448, "alt_km": 509.08790180025244, "timestamp": "2025-12-26T18:39:30.997053+00:00", "meta": {"OBJECT_NAME": "TRANSPORTER-15CN", "OBJECT_ID": "2025-276CN", "EPOCH": "2025-12-26T15:23:37.065408", "MEAN_MOTION": 15.18022276, "ECCENTRICITY": 0.00045229, "INCLINATION": 97.4459, "RA_OF_ASC_NODE": 72.1963, "ARG_OF_PERICENTER": 62.4552, "MEAN_ANOMALY": 297.7141, "EPHEMERIS_TYPE": 0, "CLASSIFICATION_TYPE": "U", "NORAD_CAT_ID": 66750, "ELEMENT_SET_NO": 999, "REV_AT_EPOCH": 423, "BSTAR": 0.00074451864, "MEAN_MOTION_DOT": 0.00015103, "MEAN_MOTION_DDOT": 0}, "tle": {"line1": "1 66750U 25276CN  25360.64140122  .00015103  00000+0  74452-3 0  9996", "line2": "2 66750  97.4459  72.1963 0004522  62.4552 297.7141 15.18022276  4233"}}, "geometry": {"type": "Point", "coordinates": [69.17911002718448, 22.79707993240635]}}, {"type": "Feature", "properties": {"norad_id": 66751, "name": "ICEYE-X58", "group": "last-30-days", "lat": 1.1399030942541122, "lon": 72.16660831589634, "alt_km": 517.1443328366258, "timestamp": "2025-12-26T18:39:30.997064+00:00", "meta": {"OBJECT_NAME": "ICEYE-X58", "OBJECT_ID": "2025-276CP", "EPOCH": "2025-12-26T13:54:24.972480", "MEAN_MOTION": 15.17835415, "ECCENTRICITY": 0.00026885, "INCLINATION": 97.4405, "RA_OF_ASC_NODE": 72.121, "ARG_OF_PERICENTER": 190.7455, "MEAN_ANOMALY": 169.3722, "EPHEMERIS_TYPE": 0, "CLASSIFICATION_TYPE": "U", "NORAD_CAT_ID": 66751, "ELEMENT_SET_NO": 999, "REV_AT_EPOCH": 422, "BSTAR": 0.00028561986, "MEAN_MOTION_DOT": 5.714e-05, "MEAN_MOTION_DDOT": 0}, "tle": {"line1": "1 66751U 25276CP  25360.57945570  .00005714  00000+0  28562-3 0  9997", "line2": "2 66751  97.4405  72.1210 0002688 190.7455 169.3722 15.17835415  4222"}}, "geometry": {"type": "Point", "coordinates": [72.16660831589634, 1.1399030942541122]}}, {"type": "Feature", "properties": {"norad_id": 66752, "name": "ICEYE-X59", "group": "last-30-days", "lat": -18.071082301066305, "lon": 74.75071555484718, "alt_km": 518.940701057506, "timestamp": "2025-12-26T18:39:30.997075+00:00", "meta": {"OBJECT_NAME": "ICEYE-X59", "OBJECT_ID": "2025-276CQ", "EPOCH": "2025-12-26T13:59:29.528160", "MEAN_MOTION": 15.17636626, "ECCENTRICITY": 0.00021083, "INCLINATION": 97.4399, "RA_OF_ASC_NODE": 72.1159, "ARG_OF_PERICENTER": 216.2083, "MEAN_ANOMALY": 143.9008, "EPHEMERIS_TYPE": 0, "CLASSIFICATION_TYPE": "U", "NORAD_CAT_ID": 66752, "ELEMENT_SET_NO": 999, "REV_AT_EPOCH": 422, "BSTAR": 0.00026710105, "MEAN_MOTION_DOT": 5.308e-05, "MEAN_MOTION_DDOT": 0}, "tle": {"line1": "1 66752U 25276CQ  25360.58298065  .00005308  00000+0  26710-3 0  9991", "line2": "2 66752  97.4399  72.1159 0002108 216.2083 143.9008 15.17636626  4223"}}, "geometry": {"type": "Point", "coordinates": [74.75071555484718, -18.071082301066305]}}, {"type": "Feature", "properties": {"norad_id": 66753, "name": "ICEYE-X60", "group": "last-30-days", "lat": -41.38152791347207, "lon": 78.90459609023613, "alt_km": 520.0267233678478, "timestamp": "2025-12-26T18:39:30.997085+00:00", "meta": {"OBJECT_NAME": "ICEYE-X60", "OBJECT_ID": "2025-276CR", "EPOCH": "2025-12-26T14:05:40.660224", "MEAN_MOTION": 15.17421804, "ECCENTRICITY": 0.00011593, "INCLINATION": 97.4401, "RA_OF_ASC_NODE": 72.1064, "ARG_OF_PERICENTER": 246.2662, "MEAN_ANOMALY": 113.845, "EPHEMERIS_TYPE": 0, "CLASSIFICATION_TYPE": "U", "NORAD_CAT_ID": 66753, "ELEMENT_SET_NO": 999, "REV_AT_EPOCH": 422, "BSTAR": 0.00043663795, "MEAN_MOTION_DOT": 8.67e-05, "MEAN_MOTION_DDOT": 0}, "tle": {"line1": "1 66753U 25276CR  25360.58727616  .00008670  00000+0  43664-3 0  9993", "line2": "2 66753  97.4401  72.1064 0001159 246.2662 113.8450 15.17421804  4221"}}, "geometry": {"type": "Point", "coordinates": [78.90459609023613, -41.38152791347207]}}, {"type": "Feature", "properties": {"norad_id": 66754, "name": "ICEYE-X61", "group": "last-30-days", "lat": 6.430524219627058, "lon": 71.46866290945366, "alt_km": 516.3532754754578, "timestamp": "2025-12-26T18:39:30.997095+00:00", "meta": {"OBJECT_NAME": "ICEYE-X61", "OBJECT_ID": "2025-276CS", "EPOCH": "2025-12-26T13:53:00.862944", "MEAN_MOTION": 15.17865974, "ECCENTRICITY": 0.00027131, "INCLINATION": 97.4398, "RA_OF_ASC_NODE": 72.117, "ARG_OF_PERICENTER": 179.2267, "MEAN_ANOMALY": 180.8972, "EPHEMERIS_TYPE": 0, "CLASSIFICATION_TYPE": "U", "NORAD_CAT_ID": 66754, "ELEMENT_SET_NO": 999, "REV_AT_EPOCH": 422, "BSTAR": -9.09286e-05, "MEAN_MOTION_DOT": -1.906e-05, "MEAN_MOTION_DDOT": 0}, "tle": {"line1": "1 66754U 25276CS  25360.57848221 -.00001906  00000+0 -90929-4 0  9993", "line2": "2 66754  97.4398  72.1170 0002713 179.2267 180.8972 15.17865974  4221"}}, "geometry": {"type": "Point", "coordinates": [71.46866290945366, 6.430524219627058]}}, {"type": "Feature", "properties": {"norad_id": 66755, "name": "ICEYE-X62", "group": "last-30-days", "lat": -19.316649137404386, "lon": 74.92641954158566, "alt_km": 518.7666892797861, "timestamp": "2025-12-26T18:39:30.997107+00:00", "meta": {"OBJECT_NAME": "ICEYE-X62", "OBJECT_ID": "2025-276CT", "EPOCH": "2025-12-26T13:59:49.642080", "MEAN_MOTION": 15.17657068, "ECCENTRICITY": 0.00012668, "INCLINATION": 97.44, "RA_OF_ASC_NODE": 72.1102, "ARG_OF_PERICENTER": 204.3978, "MEAN_ANOMALY": 155.7196, "EPHEMERIS_TYPE": 0, "CLASSIFICATION_TYPE": "U", "NORAD_CAT_ID": 66755, "ELEMENT_SET_NO": 999, "REV_AT_EPOCH": 422, "BSTAR": 0.00027629235, "MEAN_MOTION_DOT": 5.496e-05, "MEAN_MOTION_DDOT": 0}, "tle": {"line1": "1 66755U 25276CT  25360.58321345  .00005496  00000+0  27629-3 0  9990", "line2": "2 66755  97.4400  72.1102 0001266 204.3978 155.7196 15.17657068  4224"}}, "geometry": {"type": "Point", "coordinates": [74.92641954158566, -19.316649137404386]}}, {"type": "Feature", "properties": {"norad_id": 66756, "name": "TRANSPORTER-15CU", "group": "last-30-days", "lat": 13.648288134876712, "lon": 70.50119257801005, "alt_km": 513.981250091535, "timestamp": "2025-12-26T18:39:30.997119+00:00", "meta": {"OBJECT_NAME": "TRANSPORTER-15CU", "OBJECT_ID": "2025-276CU", "EPOCH": "2025-12-26T13:51:07.110432", "MEAN_MOTION": 15.17986056, "ECCENTRICITY": 0.00018408, "INCLINATION": 97.4406, "RA_OF_ASC_NODE": 72.1228, "ARG_OF_PERICENTER": 150.8996, "MEAN_ANOMALY": 209.2341, "EPHEMERIS_TYPE": 0, "CLASSIFICATION_TYPE": "U", "NORAD_CAT_ID": 66756, "ELEMENT_SET_NO": 999, "REV_AT_EPOCH": 422, "BSTAR": 0.00031851091, "MEAN_MOTION_DOT": 6.408e-05, "MEAN_MOTION_DDOT": 0}, "tle": {"line1": "1 66756U 25276CU  25360.57716563  .00006408  00000+0  31851-3 0  9996", "line2": "2 66756  97.4406  72.1228 0001840 150.8996 209.2341 15.17986056  4222"}}, "geometry": {"type": "Point", "coordinates": [70.50119257801005, 13.648288134876712]}}]}